#dV2023  2 14 22  0  0.00000000    1682       CTS   FIT  GFZ
## 2249 252000.00000000    30.00000000 59989 0.9166666666667
+    1   L65  0  0  0  0  0  0  0  0  0  0  0  0  0  0  0  0
+          0  0  0  0  0  0  0  0  0  0  0  0  0  0  0  0  0
+          0  0  0  0  0  0  0  0  0  0  0  0  0  0  0  0  0
+          0  0  0  0  0  0  0  0  0  0  0  0  0  0  0  0  0
+          0  0  0  0  0  0  0  0  0  0  0  0  0  0  0  0  0
++         0  0  0  0  0  0  0  0  0  0  0  0  0  0  0  0  0
++         0  0  0  0  0  0  0  0  0  0  0  0  0  0  0  0  0
++         0  0  0  0  0  0  0  0  0  0  0  0  0  0  0  0  0
++         0  0  0  0  0  0  0  0  0  0  0  0  0  0  0  0  0
++         0  0  0  0  0  0  0  0  0  0  0  0  0  0  0  0  0
%c L  cc GPS ccc cccc cccc cccc cccc ccccc ccccc ccccc ccccc
%c cc cc ccc ccc cccc cccc cccc cccc ccccc ccccc ccccc ccccc
%f  0.0000000  0.000000000  0.00000000000  0.000000000000000
%f  0.0000000  0.000000000  0.00000000000  0.000000000000000
%i    0    0    0    0      0      0      0      0         0
%i    0    0    0    0      0      0      0      0         0
/* CCCCCCCCCCCCCCCCCCCCCCCCCCCCCCCCCCCCCCCCCCCCCCCCCCCCCCCCCCCCCCCCCCCCCCCCCCCCC
/* C                             GFZ RSO-ORBIT                                 C
/* C DOI: https://doi.org/10.5880/GFZ_ORBIT/RSO/L65_G_v02                      C
/* C                                                                           C
/* C DORIS        RMS: not applicable                                          C
/* C GNSS-E Code  RMS: not applicable                                          C
/* C GNSS-E Phase RMS: not applicable                                          C
/* C GNSS-G Code  RMS:  49.907 [cm]   Obs.acc.:     13896 Obs.eli.:      1018  C
/* C GNSS-G Phase RMS:   4.562 [mm]   Obs.acc.:     13896 Obs.eli.:      1018  C
/* C SLR          RMS:   1.547 [cm]   Obs.acc.:        49 Obs.eli.:         0  C
/* C                                                                           C
/* CCCCCCCCCCCCCCCCCCCCCCCCCCCCCCCCCCCCCCCCCCCCCCCCCCCCCCCCCCCCCCCCCCCCCCCCCCCCC
*  2023  2 15  9  3  0.00000000
PL65   -496.830798  -4489.039463   5154.306504  14233.593969
VL65  -7564.093060 -56951.992751 -50221.674425 999999.999999
*  2023  2 15  9  3 30.00000000
PL65   -519.613965  -4657.329756   5000.796492  14234.063765
VL65  -7622.024711 -55231.108726 -52108.864080 999999.999999
*  2023  2 15  9  4  0.00000000
PL65   -542.546820  -4820.364547   4841.711198  14234.533579
VL65  -7663.830910 -53448.658610 -53938.178027 999999.999999
*  2023  2 15  9  4 30.00000000
PL65   -565.580513  -4977.962186   4677.227370  14235.003358
VL65  -7689.200202 -51606.688842 -55707.547832 999999.999999
*  2023  2 15  9  5  0.00000000
PL65   -588.665300  -5129.947275   4507.527858  14235.473163
VL65  -7697.848629 -49707.316322 -57414.972556 999999.999999
*  2023  2 15  9  5 30.00000000
PL65   -611.750627  -5276.150864   4332.801413  14235.942926
VL65  -7689.519952 -47752.725923 -59058.521046 999999.999999
*  2023  2 15  9  6  0.00000000
PL65   -634.785214  -5416.410660   4153.242469  14236.412722
VL65  -7663.986501 -45745.167227 -60636.334590 999999.999999
*  2023  2 15  9  6 30.00000000
PL65   -657.717142  -5550.571208   3969.050928  14236.882494
VL65  -7621.050525 -43686.951151 -62146.627973 999999.999999
*  2023  2 15  9  7  0.00000000
PL65   -680.493946  -5678.484078   3780.431935  14237.352275
VL65  -7560.545073 -41580.448707 -63587.690665 999999.999999
*  2023  2 15  9  7 30.00000000
PL65   -703.062706  -5800.008041   3587.595650  14237.822057
VL65  -7482.334293 -39428.089307 -64957.889866 999999.999999
*  2023  2 15  9  8  0.00000000
PL65   -725.370141  -5915.009240   3390.757014  14238.291845
VL65  -7386.313354 -37232.357712 -66255.673447 999999.999999
*  2023  2 15  9  8 30.00000000
PL65   -747.362701  -6023.361351   3190.135497  14238.761590
VL65  -7272.408246 -34995.790644 -67479.572807 999999.999999
*  2023  2 15  9  9  0.00000000
PL65   -768.986662  -6124.945731   2985.954847  14239.231347
VL65  -7140.576052 -32720.972406 -68628.205099 999999.999999
*  2023  2 15  9  9 30.00000000
PL65   -790.188217  -6219.651561   2778.442833  14239.701099
VL65  -6990.804414 -30410.531066 -69700.273768 999999.999999
*  2023  2 15  9 10  0.00000000
PL65   -810.913566  -6307.375963   2567.830981  14240.170857
VL65  -6823.111104 -28067.135711 -70694.569120 999999.999999
*  2023  2 15  9 10 30.00000000
PL65   -831.109010  -6388.024127   2354.354317  14240.640598
VL65  -6637.545431 -25693.493708 -71609.968627 999999.999999
*  2023  2 15  9 11  0.00000000
PL65   -850.721048  -6461.509422   2138.251102  14241.110366
VL65  -6434.189927 -23292.350511 -72445.437822 999999.999999
*  2023  2 15  9 11 30.00000000
PL65   -869.696476  -6527.753510   1919.762565  14241.580104
VL65  -6213.161528 -20866.488691 -73200.035480 999999.999999
*  2023  2 15  9 12  0.00000000
PL65   -887.982494  -6586.686447   1699.132607  14242.049846
VL65  -5974.611567 -18418.720251 -73872.919345 999999.999999
*  2023  2 15  9 12 30.00000000
PL65   -905.526806  -6638.246757   1476.607510  14242.519594
VL65  -5718.723491 -15951.877957 -74463.344707 999999.999999
*  2023  2 15  9 13  0.00000000
PL65   -922.277710  -6682.381492   1252.435650  14242.989337
VL65  -5445.711632 -13468.813602 -74970.661531 999999.999999
*  2023  2 15  9 13 30.00000000
PL65   -938.184197  -6719.046286   1026.867207  14243.459093
VL65  -5155.821846 -10972.396785 -75394.316251 999999.999999
*  2023  2 15  9 14  0.00000000
PL65   -953.196040  -6748.205403    800.153874  14243.928830
VL65  -4849.331435  -8465.510679 -75733.853265 999999.999999
*  2023  2 15  9 14 30.00000000
PL65   -967.263892  -6769.831774    572.548565  14244.398552
VL65  -4526.548655  -5951.048271 -75988.915464 999999.999999
*  2023  2 15  9 15  0.00000000
PL65   -980.339377  -6783.907015    344.305117  14244.868284
VL65  -4187.812335  -3431.908220 -76159.244697 999999.999999
*  2023  2 15  9 15 30.00000000
PL65   -992.375181  -6790.421446    115.677992  14245.338014
VL65  -3833.491604   -910.990886 -76244.681728 999999.999999
*  2023  2 15  9 16  0.00000000
PL65  -1003.325140  -6789.374082   -113.078017  14245.807751
VL65  -3463.985345   1608.805345 -76245.166212 999999.999999
*  2023  2 15  9 16 30.00000000
PL65  -1013.144334  -6780.772628   -341.708088  14246.277495
VL65  -3079.721461   4124.587755 -76160.736558 999999.999999
*  2023  2 15  9 17  0.00000000
PL65  -1021.789167  -6764.633453   -569.957656  14246.747228
VL65  -2681.156206   6633.473004 -75991.529685 999999.999999
*  2023  2 15  9 17 30.00000000
PL65  -1029.217453  -6740.981558   -797.572720  14247.216950
VL65  -2268.773585   9132.590920 -75737.780485 999999.999999
*  2023  2 15  9 18  0.00000000
PL65  -1035.388501  -6709.850529  -1024.300126  14247.686697
VL65  -1843.084849  11619.087993 -75399.821103 999999.999999
*  2023  2 15  9 18 30.00000000
PL65  -1040.263193  -6671.282485  -1249.887862  14248.156443
VL65  -1404.627997  14090.130850 -74978.080291 999999.999999
*  2023  2 15  9 19  0.00000000
PL65  -1043.804064  -6625.328009  -1474.085347  14248.626172
VL65   -953.967117  16542.909646 -74473.082547 999999.999999
*  2023  2 15  9 19 30.00000000
PL65  -1045.975380  -6572.046075  -1696.643717  14249.095903
VL65   -491.691585  18974.641133 -73885.447384 999999.999999
*  2023  2 15  9 20  0.00000000
PL65  -1046.743212  -6511.503964  -1917.316105  14249.565636
VL65    -18.415144  21382.572006 -73215.888919 999999.999999
*  2023  2 15  9 20 30.00000000
PL65  -1046.075507  -6443.777164  -2135.857932  14250.035380
VL65    465.225188  23763.982950 -72465.215077 999999.999999
*  2023  2 15  9 21  0.00000000
PL65  -1043.942156  -6368.949269  -2352.027177  14250.505108
VL65    958.570112  26116.192596 -71634.325752 999999.999999
*  2023  2 15  9 21 30.00000000
PL65  -1040.315062  -6287.111852  -2565.584658  14250.974861
VL65   1460.938780  28436.560430 -70724.210764 999999.999999
*  2023  2 15  9 22  0.00000000
PL65  -1035.168200  -6198.364347  -2776.294292  14251.444599
VL65   1971.629572  30722.489410 -69735.948465 999999.999999
*  2023  2 15  9 22 30.00000000
PL65  -1028.477683  -6102.813907  -2983.923364  14251.914346
VL65   2489.921147  32971.428861 -68670.704524 999999.999999
*  2023  2 15  9 23  0.00000000
PL65  -1020.221812  -6000.575266  -3188.242786  14252.384093
VL65   3015.073710  35180.877787 -67529.730729 999999.999999
*  2023  2 15  9 23 30.00000000
PL65  -1010.381136  -5891.770580  -3389.027352  14252.853841
VL65   3546.330342  37348.388733 -66314.362979 999999.999999
*  2023  2 15  9 24  0.00000000
PL65   -998.938498  -5776.529264  -3586.055984  14253.323611
VL65   4082.918195  39471.570916 -65026.018276 999999.999999
*  2023  2 15  9 24 30.00000000
PL65   -985.879083  -5654.987817  -3779.111977  14253.793364
VL65   4624.049615  41548.092240 -63666.191825 999999.999999
*  2023  2 15  9 25  0.00000000
PL65   -971.190458  -5527.289645  -3967.983222  14254.263128
VL65   5168.923201  43575.680801 -62236.454830 999999.999999
*  2023  2 15  9 25 30.00000000
PL65   -954.862615  -5393.584877  -4152.462439  14254.732924
VL65   5716.724710  45552.126776 -60738.453039 999999.999999
*  2023  2 15  9 26  0.00000000
PL65   -936.888007  -5254.030175  -4332.347392  14255.202678
VL65   6266.628072  47475.285211 -59173.904986 999999.999999
*  2023  2 15  9 26 30.00000000
PL65   -917.261581  -5108.788533  -4507.441109  14255.672457
VL65   6817.796724  49343.078576 -57544.599375 999999.999999
*  2023  2 15  9 27  0.00000000
PL65   -895.980807  -4958.029079  -4677.552085  14256.142247
VL65   7369.384976  51153.498647 -55852.392380 999999.999999
*  2023  2 15  9 27 30.00000000
PL65   -873.045705  -4801.926855  -4842.494481  14256.612041
VL65   7920.539191  52904.607964 -54099.205270 999999.999999
*  2023  2 15  9 28  0.00000000
PL65   -848.458866  -4640.662609  -5002.088319  14257.081832
VL65   8470.398940  54594.541542 -52287.022557 999999.999999
EOF
